STARLINK-2022           
1 47643U 21012Z   23280.67987254  .00031191  00000+0  21012-2 0  9995
2 47643  53.0544  60.0917 0001278  91.6791 268.4345 15.06443272146503
